0 METEOR 1-10 DEB
1 36929U 71120S   13282.92610222  .00023375  00000-0  39932-2 0  3688
2 36929 081.2359 145.3186 0007235 346.3111 013.7894 14.68784505251382
0 METEOR 1-10 DEB
1 36929U 71120S   13285.03787691  .00018261  00000-0  31162-2 0  3694
2 36929 081.2482 143.0804 0006978 337.3967 022.6928 14.68857667251694
0 METEOR 1-10 DEB
1 36929U 71120S   13287.01333545  .00017227  00000-0  29363-2 0  3702
2 36929 081.2544 140.9659 0007249 354.4208 005.6913 14.68912770251981
0 METEOR 1-10 DEB
1 36929U 71120S   13287.55826998  .00025064  00000-0  42672-2 0  3717
2 36929 081.2559 140.3947 0006713 338.1303 021.9613 14.68928115252069
0 METEOR 1-10 DEB
1 36929U 71120S   13291.98558521  .00019322  00000-0  32786-2 0  3729
2 36929 081.2554 135.6598 0006453 331.1121 028.9724 14.69105253252718
0 METEOR 1-10 DEB
1 36929U 71120S   13293.00721102  .00019334  00000-0  32790-2 0  3730
2 36929 081.2681 134.5799 0005341 340.6286 019.4713 14.69132629252868
0 METEOR 1-10 DEB
1 36929U 71120S   13293.89260169  .00019961  00000-0  33839-2 0  3740
2 36929 081.2516 133.6192 0005377 328.5439 031.5442 14.69147440252991
0 METEOR 1-10 DEB
1 36929U 71120S   13294.98229648  .00020033  00000-0  33938-2 0  3751
2 36929 081.2492 132.4479 0006154 323.0590 037.0189 14.69173793253159
